{"type": "FeatureCollection", "features": [ {"type": "Feature", "properties": {"norad_id": 36163, "name": "FENGYUN 1C DEB", "group": "fengyun-1c-debris", "lat": 61.85215189617712, "lon": 173.97393186783526, "alt_km": 663.0700552689741, "timestamp": "2025-12-13T05:42:57.847916+00:00", "meta": {"OBJECT_NAME": "FENGYUN 1C DEB", "OBJECT_ID": "1999-025DSL", "EPOCH": "2025-12-10T19:49:22.240704", "MEAN_MOTION": 14.58949248, "ECCENTRICITY": 0.00384423, "INCLINATION": 99.0783, "RA_OF_ASC_NODE": 188.7276, "ARG_OF_PERICENTER": 77.4481, "MEAN_ANOMALY": 283.1011, "EPHEMERIS_TYPE": 0, "CLASSIFICATION_TYPE": "U", "NORAD_CAT_ID": 36163, "ELEMENT_SET_NO": 999, "REV_AT_EPOCH": 89159, "BSTAR": 0.0062859017, "MEAN_MOTION_DOT": 0.00029856, "MEAN_MOTION_DDOT": 0}, "tle": {"line1": "1 36163U 99025DSL 25344.82595186  .00029856  00000+0  62859-2 0  9997", "line2": "2 36163  99.0783 188.7276 0038442  77.4481 283.1011 14.58949248891590"}}, "geometry": {"type": "Point", "coordinates": [173.97393186783526, 61.85215189617712]}}, {"type": "Feature", "properties": {"norad_id": 36167, "name": "FENGYUN 1C DEB", "group": "fengyun-1c-debris", "lat": 39.56085981484657, "lon": 81.79593593936157, "alt_km": 735.8725729230509, "timestamp": "2025-12-13T05:42:57.847927+00:00", "meta": {"OBJECT_NAME": "FENGYUN 1C DEB", "OBJECT_ID": "1999-025DSQ", "EPOCH": "2025-12-11T11:38:30.131808", "MEAN_MOTION": 14.49236898, "ECCENTRICITY": 0.00689441, "INCLINATION": 98.812, "RA_OF_ASC_NODE": 252.6028, "ARG_OF_PERICENTER": 248.2958, "MEAN_ANOMALY": 111.0884, "EPHEMERIS_TYPE": 0, "CLASSIFICATION_TYPE": "U", "NORAD_CAT_ID": 36167, "ELEMENT_SET_NO": 999, "REV_AT_EPOCH": 67261, "BSTAR": 0.0021364842, "MEAN_MOTION_DOT": 8.349e-05, "MEAN_MOTION_DDOT": 0}, "tle": {"line1": "1 36167U 99025DSQ 25345.48507097  .00008349  00000+0  21365-2 0  9999", "line2": "2 36167  98.8120 252.6028 0068944 248.2958 111.0884 14.49236898672616"}}, "geometry": {"type": "Point", "coordinates": [81.79593593936157, 39.56085981484657]}}, {"type": "Feature", "properties": {"norad_id": 36173, "name": "FENGYUN 1C DEB", "group": "fengyun-1c-debris", "lat": 25.993329650411713, "lon": 128.3637395406872, "alt_km": 715.5943464931624, "timestamp": "2025-12-13T05:42:57.847937+00:00", "meta": {"OBJECT_NAME": "FENGYUN 1C DEB", "OBJECT_ID": "1999-025DSW", "EPOCH": "2025-12-10T02:51:11.203488", "MEAN_MOTION": 14.25169859, "ECCENTRICITY": 0.0146399, "INCLINATION": 98.2133, "RA_OF_ASC_NODE": 301.4038, "ARG_OF_PERICENTER": 192.9431, "MEAN_ANOMALY": 166.7976, "EPHEMERIS_TYPE": 0, "CLASSIFICATION_TYPE": "U", "NORAD_CAT_ID": 36173, "ELEMENT_SET_NO": 999, "REV_AT_EPOCH": 59053, "BSTAR": 0.0004108008, "MEAN_MOTION_DOT": 1.038e-05, "MEAN_MOTION_DDOT": 0}, "tle": {"line1": "1 36173U 99025DSW 25344.11887967  .00001038  00000+0  41080-3 0  9997", "line2": "2 36173  98.2133 301.4038 0146399 192.9431 166.7976 14.25169859590532"}}, "geometry": {"type": "Point", "coordinates": [128.3637395406872, 25.993329650411713]}}, {"type": "Feature", "properties": {"norad_id": 36180, "name": "FENGYUN 1C DEB", "group": "fengyun-1c-debris", "lat": 52.961843579797474, "lon": -117.79358155746866, "alt_km": 832.4149789214816, "timestamp": "2025-12-13T05:42:57.847948+00:00", "meta": {"OBJECT_NAME": "FENGYUN 1C DEB", "OBJECT_ID": "1999-025DTD", "EPOCH": "2025-12-05T21:21:22.276224", "MEAN_MOTION": 14.20680074, "ECCENTRICITY": 0.02106275, "INCLINATION": 98.4572, "RA_OF_ASC_NODE": 43.7979, "ARG_OF_PERICENTER": 50.8055, "MEAN_ANOMALY": 311.1621, "EPHEMERIS_TYPE": 0, "CLASSIFICATION_TYPE": "U", "NORAD_CAT_ID": 36180, "ELEMENT_SET_NO": 999, "REV_AT_EPOCH": 70486, "BSTAR": 0.00091841135, "MEAN_MOTION_DOT": 2.432e-05, "MEAN_MOTION_DDOT": 0}, "tle": {"line1": "1 36180U 99025DTD 25339.88984116  .00002432  00000+0  91841-3 0  9996", "line2": "2 36180  98.4572  43.7979 0210627  50.8055 311.1621 14.20680074704867"}}, "geometry": {"type": "Point", "coordinates": [-117.79358155746866, 52.961843579797474]}}, {"type": "Feature", "properties": {"norad_id": 36182, "name": "FENGYUN 1C DEB", "group": "fengyun-1c-debris", "lat": 26.18118983950366, "lon": -89.69600838849092, "alt_km": 764.4037390271624, "timestamp": "2025-12-13T05:42:57.847959+00:00", "meta": {"OBJECT_NAME": "FENGYUN 1C DEB", "OBJECT_ID": "1999-025DTF", "EPOCH": "2025-12-11T13:25:23.226240", "MEAN_MOTION": 14.34707168, "ECCENTRICITY": 0.00218613, "INCLINATION": 99.0881, "RA_OF_ASC_NODE": 273.0524, "ARG_OF_PERICENTER": 79.0589, "MEAN_ANOMALY": 281.3052, "EPHEMERIS_TYPE": 0, "CLASSIFICATION_TYPE": "U", "NORAD_CAT_ID": 36182, "ELEMENT_SET_NO": 999, "REV_AT_EPOCH": 87940, "BSTAR": 0.0024811831, "MEAN_MOTION_DOT": 7.003e-05, "MEAN_MOTION_DDOT": 0}, "tle": {"line1": "1 36182U 99025DTF 25345.55929660  .00007003  00000+0  24812-2 0  9994", "line2": "2 36182  99.0881 273.0524 0021861  79.0589 281.3052 14.34707168879406"}}, "geometry": {"type": "Point", "coordinates": [-89.69600838849092, 26.18118983950366]}}, {"type": "Feature", "properties": {"norad_id": 36186, "name": "FENGYUN 1C DEB", "group": "fengyun-1c-debris", "lat": 31.715248008235488, "lon": -154.9671536395735, "alt_km": 522.6940491259111, "timestamp": "2025-12-13T05:42:57.847970+00:00", "meta": {"OBJECT_NAME": "FENGYUN 1C DEB", "OBJECT_ID": "1999-025DTK", "EPOCH": "2025-12-06T21:01:26.135616", "MEAN_MOTION": 15.09149878, "ECCENTRICITY": 0.00147295, "INCLINATION": 98.9889, "RA_OF_ASC_NODE": 203.1836, "ARG_OF_PERICENTER": 349.9169, "MEAN_ANOMALY": 20.7197, "EPHEMERIS_TYPE": 0, "CLASSIFICATION_TYPE": "U", "NORAD_CAT_ID": 36186, "ELEMENT_SET_NO": 999, "REV_AT_EPOCH": 61482, "BSTAR": 0.015546812, "MEAN_MOTION_DOT": 0.00256087, "MEAN_MOTION_DDOT": 0}, "tle": {"line1": "1 36186U 99025DTK 25340.87599694  .00256087  00000+0  15547-1 0  9990", "line2": "2 36186  98.9889 203.1836 0014729 349.9169  20.7197 15.09149878614823"}}, "geometry": {"type": "Point", "coordinates": [-154.9671536395735, 31.715248008235488]}}, {"type": "Feature", "properties": {"norad_id": 36188, "name": "FENGYUN 1C DEB", "group": "fengyun-1c-debris", "lat": 41.04456898756675, "lon": -84.76338453711732, "alt_km": 720.113349084053, "timestamp": "2025-12-13T05:42:57.847981+00:00", "meta": {"OBJECT_NAME": "FENGYUN 1C DEB", "OBJECT_ID": "1999-025DTM", "EPOCH": "2025-12-10T17:53:45.757536", "MEAN_MOTION": 14.60603785, "ECCENTRICITY": 0.00476278, "INCLINATION": 98.5851, "RA_OF_ASC_NODE": 85.0962, "ARG_OF_PERICENTER": 310.9096, "MEAN_ANOMALY": 48.7983, "EPHEMERIS_TYPE": 0, "CLASSIFICATION_TYPE": "U", "NORAD_CAT_ID": 36188, "ELEMENT_SET_NO": 999, "REV_AT_EPOCH": 88023, "BSTAR": 0.0038994823, "MEAN_MOTION_DOT": 0.00019263, "MEAN_MOTION_DDOT": 0}, "tle": {"line1": "1 36188U 99025DTM 25344.74566849  .00019263  00000+0  38995-2 0  9994", "line2": "2 36188  98.5851  85.0962 0047627 310.9096  48.7983 14.60603785880238"}}, "geometry": {"type": "Point", "coordinates": [-84.76338453711732, 41.04456898756675]}}, {"type": "Feature", "properties": {"norad_id": 36198, "name": "FENGYUN 1C DEB", "group": "fengyun-1c-debris", "lat": 52.95069054674262, "lon": -151.84021171713394, "alt_km": 792.966758751857, "timestamp": "2025-12-13T05:42:57.847991+00:00", "meta": {"OBJECT_NAME": "FENGYUN 1C DEB", "OBJECT_ID": "1999-025DTX", "EPOCH": "2025-12-11T20:43:05.397888", "MEAN_MOTION": 14.07895366, "ECCENTRICITY": 0.0096761, "INCLINATION": 98.6241, "RA_OF_ASC_NODE": 15.2488, "ARG_OF_PERICENTER": 117.8729, "MEAN_ANOMALY": 243.2283, "EPHEMERIS_TYPE": 0, "CLASSIFICATION_TYPE": "U", "NORAD_CAT_ID": 36198, "ELEMENT_SET_NO": 999, "REV_AT_EPOCH": 63575, "BSTAR": 0.0023599, "MEAN_MOTION_DOT": 4.141e-05, "MEAN_MOTION_DDOT": 0}, "tle": {"line1": "1 36198U 99025DTX 25345.86325692  .00004141  00000+0  23599-2 0  9991", "line2": "2 36198  98.6241  15.2488 0096761 117.8729 243.2283 14.07895366635750"}}, "geometry": {"type": "Point", "coordinates": [-151.84021171713394, 52.95069054674262]}}, {"type": "Feature", "properties": {"norad_id": 36199, "name": "FENGYUN 1C DEB", "group": "fengyun-1c-debris", "lat": 14.380190963714325, "lon": 6.212392908161961, "alt_km": 751.7007330717634, "timestamp": "2025-12-13T05:42:57.848002+00:00", "meta": {"OBJECT_NAME": "FENGYUN 1C DEB", "OBJECT_ID": "1999-025DTY", "EPOCH": "2025-12-09T21:01:24.472416", "MEAN_MOTION": 14.29643136, "ECCENTRICITY": 0.00929805, "INCLINATION": 98.2902, "RA_OF_ASC_NODE": 5.1538, "ARG_OF_PERICENTER": 75.8738, "MEAN_ANOMALY": 285.2756, "EPHEMERIS_TYPE": 0, "CLASSIFICATION_TYPE": "U", "NORAD_CAT_ID": 36199, "ELEMENT_SET_NO": 999, "REV_AT_EPOCH": 64939, "BSTAR": 0.00037118247, "MEAN_MOTION_DOT": 9.56e-06, "MEAN_MOTION_DDOT": 0}, "tle": {"line1": "1 36199U 99025DTY 25343.87597769  .00000956  00000+0  37118-3 0  9990", "line2": "2 36199  98.2902   5.1538 0092980  75.8738 285.2756 14.29643136649393"}}, "geometry": {"type": "Point", "coordinates": [6.212392908161961, 14.380190963714325]}}, {"type": "Feature", "properties": {"norad_id": 36200, "name": "FENGYUN 1C DEB", "group": "fengyun-1c-debris", "lat": -33.624488912875925, "lon": -125.05757634088599, "alt_km": 724.5807681863207, "timestamp": "2025-12-13T05:42:57.848012+00:00", "meta": {"OBJECT_NAME": "FENGYUN 1C DEB", "OBJECT_ID": "1999-025DTZ", "EPOCH": "2025-12-07T03:51:08.362944", "MEAN_MOTION": 14.58359228, "ECCENTRICITY": 0.00334809, "INCLINATION": 99.3875, "RA_OF_ASC_NODE": 54.4014, "ARG_OF_PERICENTER": 25.778, "MEAN_ANOMALY": 334.5075, "EPHEMERIS_TYPE": 0, "CLASSIFICATION_TYPE": "U", "NORAD_CAT_ID": 36200, "ELEMENT_SET_NO": 999, "REV_AT_EPOCH": 73279, "BSTAR": 0.0062871133, "MEAN_MOTION_DOT": 0.00029404, "MEAN_MOTION_DDOT": 0}, "tle": {"line1": "1 36200U 99025DTZ 25341.16051346  .00029404  00000+0  62871-2 0  9991", "line2": "2 36200  99.3875  54.4014 0033480  25.7780 334.5075 14.58359228732791"}}, "geometry": {"type": "Point", "coordinates": [-125.05757634088599, -33.624488912875925]}}]}